ONEWEB-0311             
1 49097U 21075Y   25212.56920052  .00000005  00000+0 -20660-4 0  9998
2 49097  87.9032  69.6707 0001530  95.1482 264.9824 13.17647962191409
ONEWEB-0312             
1 49098U 21075Z   25212.58440051 -.00000012  00000+0 -63558-4 0  9999
2 49098  87.9031  69.6991 0001377  84.1281 276.0008 13.17648922191380
ONEWEB-0313             
1 49099U 21075AA  25212.58931145 -.00000014  00000+0 -68255-4 0  9990
2 49099  87.9027  69.7125 0001782  87.8282 272.3054 13.17650233191374
ONEWEB-0314             
1 49100U 21075AB  25212.63165297  .00000028  00000+0  39554-4 0  9999
2 49100  87.9039  69.6371 0001389  85.9765 274.1525 13.17649662191355
ONEWEB-0315             
1 49101U 21075AC  25212.63211872  .00000352  00000+0  94397-3 0  9996
2 49101  87.8853  54.3699 0001730  99.4185 260.7139 13.12442935193127
ONEWEB-0316             
1 49102U 21075AD  25212.58065498  .00000132  00000+0  30282-3 0  9991
2 49102  87.9125  39.1533 0001821  96.1878 263.9462 13.18687205194956
ONEWEB-0317             
1 49103U 21075AE  25212.54939139  .00000430  00000+0  11591-2 0  9992
2 49103  87.8849  54.4015 0001895  60.6264 299.5054 13.12443563193132
ONEWEB-0318             
1 49104U 21075AF  25212.57735438  .00000010  00000+0 -83755-5 0  9991
2 49104  87.9126  39.1400 0001771  97.3426 262.7908 13.18686688195911
ONEWEB-0319             
1 49105U 21075AG  25212.57089343 -.00000018  00000+0 -80186-4 0  9992
2 49105  87.9032  69.6952 0001549  97.3223 262.8085 13.17649583192372
ONEWEB-0323             
1 49106U 21075AH  25212.61589247  .00000282  00000+0  74820-3 0  9994
2 49106  87.8851  54.3738 0001438 110.6751 249.4532 13.12443413192508
ONEWEB-0329             
1 49107U 21075AJ  25212.57932272 -.00000134  00000+0 -37869-3 0  9990
2 49107  87.9030  69.6981 0001546  88.7987 271.3322 13.17648114191368
ONEWEB-0330             
1 49108U 21075AK  25212.58036551 -.00000012  00000+0 -63908-4 0  9996
2 49108  87.9028  69.7001 0001493  80.6965 279.4335 13.17726149192390
ONEWEB-0292             
1 49186U 21083A   25212.53406736  .00000274  00000+0  71445-3 0  9994
2 49186  87.8970  23.9681 0001790  98.0687 262.0645 13.13469909188831
ONEWEB-0303             
1 49187U 21083B   25212.57404198  .00000043  00000+0  76268-4 0  9992
2 49187  87.9124  39.1414 0001757  94.7852 265.3481 13.18684805189000
ONEWEB-0306             
1 49188U 21083C   25212.56414664  .00000004  00000+0 -21632-4 0  9994
2 49188  87.9126  39.1287 0001851  82.8551 277.2791 13.18684316187764
ONEWEB-0307             
1 49189U 21083D   25212.52815275  .00000152  00000+0  38022-3 0  9997
2 49189  87.8955  23.9723 0001625  82.1102 278.0211 13.13470989188833
ONEWEB-0320             
1 49190U 21083E   25212.57074712  .00000005  00000+0 -20741-4 0  9995
2 49190  87.9125  39.1560 0001763  89.7380 270.3954 13.18685854187727
