[{"OBJECT_NAME":"ONEWEB-0311","OBJECT_ID":"2021-075Y","EPOCH":"2025-07-31T13:39:38.924928","MEAN_MOTION":13.17647962,"ECCENTRICITY":0.000153,"INCLINATION":87.9032,"RA_OF_ASC_NODE":69.6707,"ARG_OF_PERICENTER":95.1482,"MEAN_ANOMALY":264.9824,"EPHEMERIS_TYPE":0,"CLASSIFICATION_TYPE":"U","NORAD_CAT_ID":49097,"ELEMENT_SET_NO":999,"REV_AT_EPOCH":19140,"BSTAR":-2.066e-5,"MEAN_MOTION_DOT":5.0e-8,"MEAN_MOTION_DDOT":0},{"OBJECT_NAME":"ONEWEB-0312","OBJECT_ID":"2021-075Z","EPOCH":"2025-07-31T14:01:32.204064","MEAN_MOTION":13.17648922,"ECCENTRICITY":0.0001377,"INCLINATION":87.9031,"RA_OF_ASC_NODE":69.6991,"ARG_OF_PERICENTER":84.1281,"MEAN_ANOMALY":276.0008,"EPHEMERIS_TYPE":0,"CLASSIFICATION_TYPE":"U","NORAD_CAT_ID":49098,"ELEMENT_SET_NO":999,"REV_AT_EPOCH":19138,"BSTAR":-6.3558e-5,"MEAN_MOTION_DOT":-1.2e-7,"MEAN_MOTION_DDOT":0},{"OBJECT_NAME":"ONEWEB-0313","OBJECT_ID":"2021-075AA","EPOCH":"2025-07-31T14:08:36.509280","MEAN_MOTION":13.17650233,"ECCENTRICITY":0.0001782,"INCLINATION":87.9027,"RA_OF_ASC_NODE":69.7125,"ARG_OF_PERICENTER":87.8282,"MEAN_ANOMALY":272.3054,"EPHEMERIS_TYPE":0,"CLASSIFICATION_TYPE":"U","NORAD_CAT_ID":49099,"ELEMENT_SET_NO":999,"REV_AT_EPOCH":19137,"BSTAR":-6.8255e-5,"MEAN_MOTION_DOT":-1.4e-7,"MEAN_MOTION_DDOT":0},{"OBJECT_NAME":"ONEWEB-0314","OBJECT_ID":"2021-075AB","EPOCH":"2025-07-31T15:09:34.816608","MEAN_MOTION":13.17649662,"ECCENTRICITY":0.0001389,"INCLINATION":87.9039,"RA_OF_ASC_NODE":69.6371,"ARG_OF_PERICENTER":85.9765,"MEAN_ANOMALY":274.1525,"EPHEMERIS_TYPE":0,"CLASSIFICATION_TYPE":"U","NORAD_CAT_ID":49100,"ELEMENT_SET_NO":999,"REV_AT_EPOCH":19135,"BSTAR":3.9554e-5,"MEAN_MOTION_DOT":2.8e-7,"MEAN_MOTION_DDOT":0},{"OBJECT_NAME":"ONEWEB-0315","OBJECT_ID":"2021-075AC","EPOCH":"2025-07-31T15:10:15.057408","MEAN_MOTION":13.12442935,"ECCENTRICITY":0.000173,"INCLINATION":87.8853,"RA_OF_ASC_NODE":54.3699,"ARG_OF_PERICENTER":99.4185,"MEAN_ANOMALY":260.7139,"EPHEMERIS_TYPE":0,"CLASSIFICATION_TYPE":"U","NORAD_CAT_ID":49101,"ELEMENT_SET_NO":999,"REV_AT_EPOCH":19412,"BSTAR":0.00094397,"MEAN_MOTION_DOT":3.52e-6,"MEAN_MOTION_DDOT":0},{"OBJECT_NAME":"ONEWEB-0316","OBJECT_ID":"2021-075AD","EPOCH":"2025-07-31T13:56:08.590272","MEAN_MOTION":13.18687205,"ECCENTRICITY":0.0001821,"INCLINATION":87.9125,"RA_OF_ASC_NODE":39.1533,"ARG_OF_PERICENTER":96.1878,"MEAN_ANOMALY":263.9462,"EPHEMERIS_TYPE":0,"CLASSIFICATION_TYPE":"U","NORAD_CAT_ID":49102,"ELEMENT_SET_NO":999,"REV_AT_EPOCH":19495,"BSTAR":0.00030282,"MEAN_MOTION_DOT":1.32e-6,"MEAN_MOTION_DDOT":0},{"OBJECT_NAME":"ONEWEB-0317","OBJECT_ID":"2021-075AE","EPOCH":"2025-07-31T13:11:07.416096","MEAN_MOTION":13.12443563,"ECCENTRICITY":0.0001895,"INCLINATION":87.8849,"RA_OF_ASC_NODE":54.4015,"ARG_OF_PERICENTER":60.6264,"MEAN_ANOMALY":299.5054,"EPHEMERIS_TYPE":0,"CLASSIFICATION_TYPE":"U","NORAD_CAT_ID":49103,"ELEMENT_SET_NO":999,"REV_AT_EPOCH":19313,"BSTAR":0.0011591,"MEAN_MOTION_DOT":4.3e-6,"MEAN_MOTION_DDOT":0},{"OBJECT_NAME":"ONEWEB-0318","OBJECT_ID":"2021-075AF","EPOCH":"2025-07-31T13:51:23.418432","MEAN_MOTION":13.18686688,"ECCENTRICITY":0.0001771,"INCLINATION":87.9126,"RA_OF_ASC_NODE":39.14,"ARG_OF_PERICENTER":97.3426,"MEAN_ANOMALY":262.7908,"EPHEMERIS_TYPE":0,"CLASSIFICATION_TYPE":"U","NORAD_CAT_ID":49104,"ELEMENT_SET_NO":999,"REV_AT_EPOCH":19591,"BSTAR":-8.3755e-6,"MEAN_MOTION_DOT":1.0e-7,"MEAN_MOTION_DDOT":0},{"OBJECT_NAME":"ONEWEB-0319","OBJECT_ID":"2021-075AG","EPOCH":"2025-07-31T13:42:05.192352","MEAN_MOTION":13.17649583,"ECCENTRICITY":0.0001549,"INCLINATION":87.9032,"RA_OF_ASC_NODE":69.6952,"ARG_OF_PERICENTER":97.3223,"MEAN_ANOMALY":262.8085,"EPHEMERIS_TYPE":0,"CLASSIFICATION_TYPE":"U","NORAD_CAT_ID":49105,"ELEMENT_SET_NO":999,"REV_AT_EPOCH":19237,"BSTAR":-8.0186e-5,"MEAN_MOTION_DOT":-1.8e-7,"MEAN_MOTION_DDOT":0},{"OBJECT_NAME":"ONEWEB-0323","OBJECT_ID":"2021-075AH","EPOCH":"2025-07-31T14:46:53.109408","MEAN_MOTION":13.12443413,"ECCENTRICITY":0.0001438,"INCLINATION":87.8851,"RA_OF_ASC_NODE":54.3738,"ARG_OF_PERICENTER":110.6751,"MEAN_ANOMALY":249.4532,"EPHEMERIS_TYPE":0,"CLASSIFICATION_TYPE":"U","NORAD_CAT_ID":49106,"ELEMENT_SET_NO":999,"REV_AT_EPOCH":19250,"BSTAR":0.0007482,"MEAN_MOTION_DOT":2.82e-6,"MEAN_MOTION_DDOT":0},{"OBJECT_NAME":"ONEWEB-0329","OBJECT_ID":"2021-075AJ","EPOCH":"2025-07-31T13:54:13.483008","MEAN_MOTION":13.17648114,"ECCENTRICITY":0.0001546,"INCLINATION":87.903,"RA_OF_ASC_NODE":69.6981,"ARG_OF_PERICENTER":88.7987,"MEAN_ANOMALY":271.3322,"EPHEMERIS_TYPE":0,"CLASSIFICATION_TYPE":"U","NORAD_CAT_ID":49107,"ELEMENT_SET_NO":999,"REV_AT_EPOCH":19136,"BSTAR":-0.00037869,"MEAN_MOTION_DOT":-1.34e-6,"MEAN_MOTION_DDOT":0},{"OBJECT_NAME":"ONEWEB-0330","OBJECT_ID":"2021-075AK","EPOCH":"2025-07-31T13:55:43.580064","MEAN_MOTION":13.17726149,"ECCENTRICITY":0.0001493,"INCLINATION":87.9028,"RA_OF_ASC_NODE":69.7001,"ARG_OF_PERICENTER":80.6965,"MEAN_ANOMALY":279.4335,"EPHEMERIS_TYPE":0,"CLASSIFICATION_TYPE":"U","NORAD_CAT_ID":49108,"ELEMENT_SET_NO":999,"REV_AT_EPOCH":19239,"BSTAR":-6.3908e-5,"MEAN_MOTION_DOT":-1.2e-7,"MEAN_MOTION_DDOT":0},{"OBJECT_NAME":"ONEWEB-0292","OBJECT_ID":"2021-083A","EPOCH":"2025-07-31T12:49:03.419904","MEAN_MOTION":13.13469909,"ECCENTRICITY":0.000179,"INCLINATION":87.897,"RA_OF_ASC_NODE":23.9681,"ARG_OF_PERICENTER":98.0687,"MEAN_ANOMALY":262.0645,"EPHEMERIS_TYPE":0,"CLASSIFICATION_TYPE":"U","NORAD_CAT_ID":49186,"ELEMENT_SET_NO":999,"REV_AT_EPOCH":18883,"BSTAR":0.00071445,"MEAN_MOTION_DOT":2.74e-6,"MEAN_MOTION_DDOT":0},{"OBJECT_NAME":"ONEWEB-0303","OBJECT_ID":"2021-083B","EPOCH":"2025-07-31T13:46:37.227072","MEAN_MOTION":13.18684805,"ECCENTRICITY":0.0001757,"INCLINATION":87.9124,"RA_OF_ASC_NODE":39.1414,"ARG_OF_PERICENTER":94.7852,"MEAN_ANOMALY":265.3481,"EPHEMERIS_TYPE":0,"CLASSIFICATION_TYPE":"U","NORAD_CAT_ID":49187,"ELEMENT_SET_NO":999,"REV_AT_EPOCH":18900,"BSTAR":7.6268e-5,"MEAN_MOTION_DOT":4.3e-7,"MEAN_MOTION_DDOT":0},{"OBJECT_NAME":"ONEWEB-0306","OBJECT_ID":"2021-083C","EPOCH":"2025-07-31T13:32:22.269696","MEAN_MOTION":13.18684316,"ECCENTRICITY":0.0001851,"INCLINATION":87.9126,"RA_OF_ASC_NODE":39.1287,"ARG_OF_PERICENTER":82.8551,"MEAN_ANOMALY":277.2791,"EPHEMERIS_TYPE":0,"CLASSIFICATION_TYPE":"U","NORAD_CAT_ID":49188,"ELEMENT_SET_NO":999,"REV_AT_EPOCH":18776,"BSTAR":-2.1632e-5,"MEAN_MOTION_DOT":4.0e-8,"MEAN_MOTION_DDOT":0},{"OBJECT_NAME":"ONEWEB-0307","OBJECT_ID":"2021-083D","EPOCH":"2025-07-31T12:40:32.397600","MEAN_MOTION":13.13470989,"ECCENTRICITY":0.0001625,"INCLINATION":87.8955,"RA_OF_ASC_NODE":23.9723,"ARG_OF_PERICENTER":82.1102,"MEAN_ANOMALY":278.0211,"EPHEMERIS_TYPE":0,"CLASSIFICATION_TYPE":"U","NORAD_CAT_ID":49189,"ELEMENT_SET_NO":999,"REV_AT_EPOCH":18883,"BSTAR":0.00038022,"MEAN_MOTION_DOT":1.52e-6,"MEAN_MOTION_DDOT":0},{"OBJECT_NAME":"ONEWEB-0320","OBJECT_ID":"2021-083E","EPOCH":"2025-07-31T13:41:52.551168","MEAN_MOTION":13.18685854,"ECCENTRICITY":0.0001763,"INCLINATION":87.9125,"RA_OF_ASC_NODE":39.156,"ARG_OF_PERICENTER":89.738,"MEAN_ANOMALY":270.3954,"EPHEMERIS_TYPE":0,"CLASSIFICATION_TYPE":"U","NORAD_CAT_ID":49190,"ELEMENT_SET_NO":999,"REV_AT_EPOCH":18772,"BSTAR":-2.0741e-5,"MEAN_MOTION_DOT":5.0e-8,"MEAN_MOTION_DDOT":0}]
